ONEWEB-0156             
1 48052U 21025L   25009.16875915 -.00000191  00000+0 -55728-3 0  9999
2 48052  87.8903  64.4191 0001873  99.1731 260.9610 13.13468368184785
ONEWEB-0161             
1 48053U 21025M   25009.21796851  .00000366  00000+0  96632-3 0  9998
2 48053  87.8907  64.4221 0002018 101.3810 258.7546 13.13469015184727
ONEWEB-0158             
1 48054U 21025N   25009.17988023 -.00000208  00000+0 -60377-3 0  9992
2 48054  87.8903  64.4148 0001908  95.1994 264.9353 13.13470317184847
ONEWEB-0157             
1 48055U 21025P   25009.66075193  .00000171  00000+0  43397-3 0  9992
2 48055  87.8900  64.3313 0002309 105.1073 255.0311 13.13469185184851
ONEWEB-0162             
1 48056U 21025Q   25009.70041988 -.00000220  00000+0 -63708-3 0  9998
2 48056  87.8899  64.3160 0001863  98.0472 262.0868 13.13469812184803
ONEWEB-0155             
1 48057U 21025R   25009.18780731 -.00000106  00000+0 -32477-3 0  9999
2 48057  87.8902  64.4324 0001875 105.1311 255.0025 13.13470578184894
ONEWEB-0149             
1 48058U 21025S   25009.66550066 -.00000047  00000+0 -16414-3 0  9996
2 48058  87.8898  64.3321 0001931  92.6770 267.4580 13.13469576184773
ONEWEB-0148             
1 48059U 21025T   25009.70676463 -.00000329  00000+0 -93626-3 0  9995
2 48059  87.8902  64.3414 0002416  87.5283 272.6123 13.13468027184898
ONEWEB-0160             
1 48060U 21025U   25009.18939321 -.00000031  00000+0 -11861-3 0  9995
2 48060  87.8905  64.4413 0001016  88.8930 271.2315 13.13470924184775
ONEWEB-0163             
1 48061U 21025V   25009.17511204 -.00000284  00000+0 -81332-3 0  9991
2 48061  87.8900  64.4302 0002166 101.9333 258.2039 13.13470367184891
ONEWEB-0159             
1 48062U 21025W   25009.16400856 -.00000135  00000+0 -40588-3 0  9994
2 48062  87.8902  64.4143 0002047  98.2177 261.9184 13.13469982184814
ONEWEB-0164             
1 48063U 21025X   25009.67980783  .00000273  00000+0  71261-3 0  9996
2 48063  87.8900  64.3221 0001736 102.8270 257.3054 13.13470253184873
ONEWEB-0167             
1 48064U 21025Y   25009.17592210 -.00000231  00000+0 -66736-3 0  9993
2 48064  87.8903  64.4374 0002061 100.6783 259.4579 13.13469240184783
ONEWEB-0166             
1 48065U 21025Z   25009.65440274  .00000031  00000+0  48636-4 0  9995
2 48065  87.8898  64.3173 0001973  94.6204 265.5150 13.13469426184929
ONEWEB-0151             
1 48066U 21025AA  25009.65598447  .00000055  00000+0  11479-3 0  9992
2 48066  87.8901  64.3355 0001809 104.9065 255.2265 13.13473410184870
ONEWEB-0170             
1 48067U 21025AB  25009.20685869  .00000352  00000+0  92956-3 0  9998
2 48067  87.8903  64.4289 0001390 111.9864 248.1413 13.13469650184765
ONEWEB-0168             
1 48068U 21025AC  25009.19257150  .00000039  00000+0  73016-4 0  9994
2 48068  87.8904  64.4075 0001926 100.4257 259.7090 13.13470744184770
ONEWEB-0173             
1 48069U 21025AD  25009.18463993 -.00000170  00000+0 -50158-3 0  9997
2 48069  87.8905  64.4183 0002192 109.9765 250.1600 13.13470140185016
ONEWEB-0171             
1 48070U 21025AE  25009.22113965  .00000257  00000+0  66989-3 0  9998
2 48070  87.8906  64.4477 0001817 103.6325 256.5007 13.13470700184833
ONEWEB-0172             
1 48071U 21025AF  25009.20051293  .00000255  00000+0  66293-3 0  9998
2 48071  87.8903  64.4181 0001931 104.9452 255.1891 13.13470114185729
ONEWEB-0174             
1 48072U 21025AG  25009.18304683 -.00000190  00000+0 -55547-3 0  9990
2 48072  87.8906  64.4357 0001935  98.4095 261.7254 13.13470386185044
ONEWEB-0175             
1 48073U 21025AH  25009.66867622  .00000940  00000+0  25394-2 0  9998
2 48073  87.8895  64.3150 0001918 106.8732 253.2607 13.13468915184766
ONEWEB-0177             
1 48074U 21025AJ  25009.22431357  .00000207  00000+0  53078-3 0  9990
2 48074  87.8902  64.4149 0002171 102.3919 257.7453 13.13468460184892
ONEWEB-0178             
1 48075U 21025AK  25009.16572391 -.00000235  00000+0 -67891-3 0  9999
2 48075  87.8907  64.4583 0002034 102.6468 257.4888 13.13468139184937
ONEWEB-0108             
1 48076U 21025AL  25009.65916326  .00000148  00000+0  36993-3 0  9994
2 48076  87.8900  64.3243 0001769  93.1202 267.0129 13.13469115184937
ONEWEB-0169             
1 48077U 21025AM  25009.69089679 -.00000009  00000+0 -58612-4 0  9992
2 48077  87.8902  64.3332 0001746  91.4933 268.6396 13.13469941184824
ONEWEB-0176             
1 48210U 21031A   25009.33639492  .00000008  00000+0 -12195-4 0  9997
2 48210  87.8989  33.8630 0001773  93.9711 266.1622 13.14503542179490
ONEWEB-0184             
1 48211U 21031B   25009.30942680 -.00000153  00000+0 -44729-3 0  9990
2 48211  87.8986  33.8442 0001703 124.6227 235.5063 13.14504768179463
ONEWEB-0179             
1 48212U 21031C   25009.35542612  .00000293  00000+0  75501-3 0  9992
2 48212  87.8988  33.8460 0001902  93.5873 266.5474 13.14502899179517
ONEWEB-0180             
1 48213U 21031D   25009.31260440 -.00000161  00000+0 -46895-3 0  9995
2 48213  87.8985  33.8467 0001920 100.3381 259.7965 13.14504275179398
ONEWEB-0218             
1 48214U 21031E   25009.33479530 -.00000405  00000+0 -11263-2 0  9991
2 48214  87.8985  33.8438 0002055 123.5076 236.6250 13.14503042179555
ONEWEB-0209             
1 48215U 21031F   25009.32369540 -.00000205  00000+0 -58786-3 0  9990
2 48215  87.8988  33.8849 0002030  94.1119 266.0242 13.14500897179552
ONEWEB-0198             
1 48216U 21031G   25009.30784915 -.00000154  00000+0 -45081-3 0  9993
2 48216  87.8988  33.8911 0001979 104.2508 255.8841 13.14502465179665
ONEWEB-0189             
1 48217U 21031H   25009.32053544 -.00000128  00000+0 -37964-3 0  9995
2 48217  87.8988  33.8634 0002127 105.1783 254.9582 13.14502387179406
ONEWEB-0196             
1 48218U 21031J   25009.29833499  .00000038  00000+0  68906-4 0  9996
2 48218  87.8989  33.8756 0001810  95.5478 264.5858 13.14502530179407
ONEWEB-0183             
1 48219U 21031K   25009.34907350  .00000230  00000+0  58614-3 0  9999
2 48219  87.8987  33.8799 0001897  89.0297 271.1050 13.14505083179500
ONEWEB-0185             
1 48220U 21031L   25009.29912332  .00000089  00000+0  20459-3 0  9999
2 48220  87.8988  33.8604 0002094  93.6841 266.4528 13.14501050179422
ONEWEB-0187             
1 48221U 21031M   25009.34511790  .00000116  00000+0  27839-3 0  9999
2 48221  87.8987  33.8865 0001930  92.0562 268.0789 13.14501096179441
ONEWEB-0192             
1 48222U 21031N   25009.32529246 -.00000211  00000+0 -60323-3 0  9996
2 48222  87.8989  33.8881 0001829  96.5353 263.5985 13.14502049179353
ONEWEB-0219             
1 48223U 21031P   25009.30467433 -.00000063  00000+0 -20450-3 0  9996
2 48223  87.8989  33.8656 0002007  94.3236 265.8123 13.14504829179569
ONEWEB-0202             
1 48224U 21031Q   25009.36176395  .00000265  00000+0  68143-3 0  9990
2 48224  87.8987  33.8710 0002167 114.4583 245.6773 13.14504618179546
ONEWEB-0204             
1 48225U 21031R   25009.31976162 -.00000201  00000+0 -57610-3 0  9995
2 48225  87.8987  33.8913 0001915  82.6589 277.4758 13.14504484179440
ONEWEB-0205             
1 48226U 21031S   25009.29515943  .00000132  00000+0  32227-3 0  9997
2 48226  87.8988  33.8677 0002001  94.0336 266.1023 13.14501205179441
ONEWEB-0206             
1 48227U 21031T   25009.34430428 -.00000269  00000+0 -75955-3 0  9996
2 48227  87.8986  33.8426 0002242  92.3838 267.7549 13.14504602179407
ONEWEB-0182             
1 48228U 21031U   25009.33955285  .00000025  00000+0  33357-4 0  9998
2 48228  87.8989  33.8792 0001772  88.4553 271.6779 13.14505558179617
ONEWEB-0186             
1 48229U 21031V   25009.35066734  .00000260  00000+0  66662-3 0  9998
2 48229  87.8988  33.8395 0001938  95.0384 265.0967 13.14501273179577
ONEWEB-0181             
1 48230U 21031W   25009.32846451 -.00000135  00000+0 -39971-3 0  9995
2 48230  87.8988  33.9146 0001865  98.4396 261.6945 13.14502159179418
ONEWEB-0188             
1 48231U 21031X   25009.29040408  .00000189  00000+0  47550-3 0  9999
2 48231  87.8990  33.9155 0001880  93.2697 266.8648 13.14500825179310
ONEWEB-0220             
1 48232U 21031Y   25009.33005065 -.00000148  00000+0 -43322-3 0  9995
2 48232  87.8981  33.8601 0002162  93.2313 266.9064 13.14501624179585
ONEWEB-0165             
1 48233U 21031Z   25009.35859366  .00000191  00000+0  47969-3 0  9996
2 48233  87.8989  33.8847 0001949  96.9337 263.2015 13.14501617179548
ONEWEB-0199             
1 48234U 21031AA  25009.34273969  .00000145  00000+0  35780-3 0  9992
2 48234  87.8987  33.8543 0001643  92.8873 267.2445 13.14504228179442
ONEWEB-0203             
1 48235U 21031AB  25009.33322337 -.00000057  00000+0 -18849-3 0  9997
2 48235  87.8988  33.8584 0001456 101.0328 259.0965 13.14503642179455
ONEWEB-0197             
1 48236U 21031AC  25009.30863384 -.00000094  00000+0 -28886-3 0  9990
2 48236  87.8989  33.8733 0001937  83.6709 276.4641 13.14500671179368
ONEWEB-0194             
1 48237U 21031AD  25009.28723178  .00000200  00000+0  50583-3 0  9990
2 48237  87.8991  33.8726 0001530  94.7998 265.3306 13.14500962179533
ONEWEB-0193             
1 48238U 21031AE  25009.30309004 -.00000023  00000+0 -97645-4 0  9998
2 48238  87.8990  33.8773 0001753  97.8217 262.3111 13.14504022179486
ONEWEB-0191             
1 48239U 21031AF  25009.31419103 -.00000200  00000+0 -57336-3 0  9991
2 48239  87.8986  33.8525 0001808  97.1099 263.0236 13.14502412179341
ONEWEB-0195             
1 48240U 21031AG  25009.29120594  .00000176  00000+0  43899-3 0  9992
2 48240  87.8987  33.8555 0002084 104.0540 256.0821 13.14502657179324
ONEWEB-0201             
1 48241U 21031AH  25009.35621003  .00000280  00000+0  71978-3 0  9996
2 48241  87.8989  33.8839 0001945  96.2007 263.9344 13.14504934179560
ONEWEB-0207             
1 48242U 21031AJ  25009.33558948 -.00000412  00000+0 -11454-2 0  9993
2 48242  87.8986  33.8514 0001971  89.3967 270.7388 13.14502781179477
